     2.11           N: GPS NAV DATA                         RINEX VERSION / TYPE
teqc  2019Feb25                         20221121 12:26:54UTCPGM / RUN BY / DATE
OSX ker:10.11.6|Core i5|gcc 4.3 -m64|OSX ker:10.10+|=+      COMMENT
    6.5193D-09  1.4901D-08 -5.9605D-08 -1.1921D-07          ION ALPHA
    7.7824D+04  3.2768D+04 -6.5536D+04 -1.9661D+05          ION BETA
    5.587935447693D-09 1.154631945610D-14   503808     1547 DELTA-UTC: A0,A1,T,W
                                                            END OF HEADER
 4 09  9  3  0  0  0.0-2.479851245880D-04-1.728039933369D-11 0.000000000000D+00
    6.800000000000D+01 4.112500000000D+01 5.523087201608D-09 2.768900261067D-01
    2.270564436913D-06 8.708451059647D-03 5.317851901054D-06 5.153787408829D+03
    3.456000000000D+05 1.490116119385D-08-2.147550199594D+00 6.146728992462D-08
    9.399366526601D-01 2.628437500000D+02 5.092632326978D-01-8.665003789331D-09
    2.717970357232D-10 1.000000000000D+00 1.547000000000D+03 0.000000000000D+00
    2.000000000000D+00 0.000000000000D+00-6.053596735001D-09 6.800000000000D+01
    3.425280000000D+05 4.000000000000D+00
32 09  9  3  0  0  0.0 2.037743106484D-04-6.934897101019D-12 0.000000000000D+00
    7.000000000000D+00-4.246875000000D+01 4.607691928864D-09 2.760072675443D+00
   -2.138316631317D-06 1.325634110253D-02 7.566064596176D-06 5.153729372025D+03
    3.456000000000D+05 2.551823854446D-07-1.018661115301D+00 1.359730958939D-07
    9.623955290082D-01 2.305312500000D+02-1.125108429991D+00-7.896400345341D-09
   -7.057436827715D-10 1.000000000000D+00 1.547000000000D+03 0.000000000000D+00
    2.000000000000D+00 0.000000000000D+00-3.259629011154D-09 7.000000000000D+00
    3.384180000000D+05 4.000000000000D+00
17 09  9  3  0  0  0.0 8.192844688892D-05 2.842170943040D-12 0.000000000000D+00
    9.600000000000D+01-3.246875000000D+01 4.348395413837D-09-1.505440230463D+00
   -1.631677150726D-06 4.642119165510D-03 1.227855682373D-05 5.153737949371D+03
    3.456000000000D+05 7.636845111847D-08 3.103153952944D+00 3.725290298462D-09
    9.603600745319D-01 1.408125000000D+02-2.640747822478D+00-7.815682697413D-09
    3.564434187277D-10 1.000000000000D+00 1.547000000000D+03 0.000000000000D+00
    2.800000000000D+00 0.000000000000D+00-1.024454832077D-08 9.600000000000D+01
    3.384180000000D+05 4.000000000000D+00
11 09  9  3  0  0  0.0-1.788279041648D-05-1.591615728103D-12 0.000000000000D+00
    3.500000000000D+01 5.812500000000D+01 6.602417874349D-09 1.872914951568D+00
    3.010034561157D-06 9.747219155543D-03 6.916001439095D-06 5.153695411682D+03
    3.456000000000D+05-2.793967723846D-07-2.370945122444D+00 0.000000000000D+00
    8.892011761239D-01 2.088750000000D+02 7.207999712749D-01-9.055377192808D-09
    5.228789228631D-10 1.000000000000D+00 1.547000000000D+03 0.000000000000D+00
    2.000000000000D+00 0.000000000000D+00-1.164153218269D-08 3.500000000000D+01
    3.384180000000D+05 4.000000000000D+00
12 09  9  3  0  0  0.0-2.248124219477D-04 5.798028723802D-12 0.000000000000D+00
    9.500000000000D+01-9.109375000000D+01 4.482329564161D-09 2.034114534018D+00
   -4.988163709641D-06 3.104432136752D-03 4.895031452179D-06 5.153585144043D+03
    3.456000000000D+05 1.676380634308D-08 2.043632485313D+00 2.235174179077D-08
    9.677808186528D-01 2.907500000000D+02-5.994789519617D-01-8.148910863418D-09
   -2.450102056585D-10 1.000000000000D+00 1.547000000000D+03 0.000000000000D+00
    2.000000000000D+00 0.000000000000D+00-1.164153218269D-08 9.500000000000D+01
    3.425880000000D+05 4.000000000000D+00
11 09  9  3  2  0  0.0-1.789489760995D-05-1.591615728103D-12 0.000000000000D+00
    4.700000000000D+01 5.959375000000D+01 6.424196164985D-09 2.923076365041D+00
    3.002583980560D-06 9.746856521815D-03 6.774440407753D-06 5.153696147919D+03
    3.528000000000D+05-3.725290298462D-08-2.371009420619D+00-1.303851604462D-07
    8.892061895441D-01 2.119687500000D+02 7.208205194222D-01-8.799652255123D-09
    5.546659612065D-10 1.000000000000D+00 1.547000000000D+03 0.000000000000D+00
    2.000000000000D+00 0.000000000000D+00-1.164153218269D-08 4.700000000000D+01
    3.456180000000D+05 4.000000000000D+00
17 09  9  3  2  0  0.0 8.194940164685D-05 2.842170943040D-12 0.000000000000D+00
    1.080000000000D+02-2.859375000000D+01 4.368753404687D-09-4.554095550531D-01
   -1.331791281700D-06 4.641830688342D-03 1.250207424164D-05 5.153736850739D+03
    3.528000000000D+05 4.097819328308D-08 3.103097659856D+00 8.195638656616D-08
    9.603622557428D-01 1.389375000000D+02-2.640637732041D+00-7.889614348392D-09
    3.317995350682D-10 1.000000000000D+00 1.547000000000D+03 0.000000000000D+00
    2.800000000000D+00 0.000000000000D+00-1.024454832077D-08 1.080000000000D+02
    3.456180000000D+05 4.000000000000D+00
20 09  9  3  2  0  0.0 7.321685552597D-05-9.094947017729D-13 0.000000000000D+00
    3.000000000000D+00-4.209375000000D+01 5.335222233421D-09 1.059730890205D+00
   -2.257525920868D-06 3.828249406070D-03 6.519258022308D-06 5.153775770187D+03
    3.528000000000D+05-1.098960638046D-07-1.130387748776D+00 6.146728992462D-08
    9.403224343980D-01 2.430625000000D+02 1.326838056885D+00-8.490353657309D-09
   -5.178787145843D-10 1.000000000000D+00 1.547000000000D+03 0.000000000000D+00
    2.000000000000D+00 0.000000000000D+00-7.450580596924D-09 3.000000000000D+00
    3.456180000000D+05 4.000000000000D+00
 4 09  9  3  2  0  0.0-2.481094561517D-04-1.728039933369D-11 0.000000000000D+00
    7.600000000000D+01 4.462500000000D+01 5.553445609015D-09 1.326937630404D+00
    2.553686499596D-06 8.709089481272D-03 5.794689059258D-06 5.153789096832D+03
    3.528000000000D+05 3.725290298462D-09-2.147612862227D+00 1.490116119385D-07
    9.399387124488D-01 2.576250000000D+02 5.093339589352D-01-8.663218000660D-09
    3.300137463972D-10 1.000000000000D+00 1.547000000000D+03 0.000000000000D+00
    2.000000000000D+00 0.000000000000D+00-6.053596735001D-09 7.600000000000D+01
    3.456180000000D+05 4.000000000000D+00
12 09  9  3  2  0  0.0-2.247709780931D-04 5.798028723802D-12 0.000000000000D+00
    9.600000000000D+01-9.537500000000D+01 4.386254133662D-09 3.084343957089D+00
   -4.941597580910D-06 3.104002797045D-03 4.585832357407D-06 5.153585828781D+03
    3.528000000000D+05 5.960464477539D-08 2.043573946646D+00 1.676380634308D-08
    9.677788934526D-01 2.911875000000D+02-5.994739970582D-01-8.168197381064D-09
   -2.771544017362D-10 1.000000000000D+00 1.547000000000D+03 0.000000000000D+00
    2.000000000000D+00 0.000000000000D+00-1.164153218269D-08 9.600000000000D+01
    3.456180000000D+05 4.000000000000D+00
32 09  9  3  2  0  0.0 2.037249505520D-04-6.934897101019D-12 0.000000000000D+00
    8.000000000000D+00-3.943750000000D+01 4.579476467862D-09-2.472967917474D+00
   -1.974403858185D-06 1.325681665912D-02 7.502734661102D-06 5.153728488922D+03
    3.528000000000D+05 3.911554813385D-08-1.018718388544D+00 2.272427082062D-07
    9.623913187299D-01 2.322500000000D+02-1.125105022855D+00-7.825325956236D-09
   -5.650235354982D-10 1.000000000000D+00 1.547000000000D+03 0.000000000000D+00
    2.000000000000D+00 0.000000000000D+00-3.259629011154D-09 8.000000000000D+00
    3.456180000000D+05 4.000000000000D+00
23 09  9  3  2  0  0.0 3.889556974173D-04-3.410605131648D-13 0.000000000000D+00
    4.300000000000D+01 5.309375000000D+01 3.971951161995D-09-1.605709583586D+00
    2.646818757057D-06 6.460011936724D-03 1.179613173008D-05 5.153580080032D+03
    3.528000000000D+05-6.519258022308D-08-5.091123736596D-02-5.215406417847D-08
    9.702121285209D-01 1.579687500000D+02 2.959311492665D+00-7.694249067786D-09
   -6.250260348431D-11 1.000000000000D+00 1.547000000000D+03 0.000000000000D+00
    2.000000000000D+00 0.000000000000D+00-2.002343535423D-08 4.300000000000D+01
    3.457680000000D+05 4.000000000000D+00
30 09  9  3  2  0  0.0 1.737629063427D-04 3.069544618484D-12 0.000000000000D+00
    5.600000000000D+01-8.171875000000D+01 4.863416866548D-09 5.833021208747D-01
   -4.468485713005D-06 1.187909196597D-02 4.248693585396D-06 5.153674722672D+03
    3.528000000000D+05-1.285225152969D-07 1.994216578439D+00-1.192092895508D-07
    9.528676371847D-01 2.949062500000D+02 1.449369801830D+00-8.605001289986D-09
   -3.171560679661D-10 1.000000000000D+00 1.547000000000D+03 0.000000000000D+00
    2.800000000000D+00 0.000000000000D+00-7.916241884232D-09 5.600000000000D+01
    3.463380000000D+05 4.000000000000D+00
 2 09  9  3  1 59 44.0 1.695444807410D-04 2.728484105319D-12 0.000000000000D+00
    4.000000000000D+00 4.190625000000D+01 5.488442901391D-09-1.523186386438D+00
    2.169981598854D-06 9.083540993743D-03 5.809590220451D-06 5.153696985245D+03
    3.527840000000D+05 2.235174179077D-08-2.165868050789D+00-1.955777406693D-07
    9.407608095038D-01 2.575312500000D+02 2.887701219661D+00-8.581786037264D-09
    5.375223899651D-10 1.000000000000D+00 1.547000000000D+03 0.000000000000D+00
    2.000000000000D+00 0.000000000000D+00-1.722946763039D-08 4.000000000000D+00
    3.464880000000D+05 4.000000000000D+00
31 09  9  3  2  0  0.0-6.472552195191D-05 2.273736754432D-13 0.000000000000D+00
    5.700000000000D+01 7.237500000000D+01 4.247319775060D-09 2.887091751897D+00
    3.909692168236D-06 7.011384586804D-03 3.796070814133D-06 5.153779045105D+03
    3.528000000000D+05 5.215406417847D-08 9.887835853424D-01 3.725290298462D-08
    9.737995342708D-01 3.138750000000D+02-1.139338064449D+00-8.023905656449D-09
    2.475103097979D-10 1.000000000000D+00 1.547000000000D+03 0.000000000000D+00
    2.000000000000D+00 0.000000000000D+00-1.303851604462D-08 5.700000000000D+01
    3.472080000000D+05 4.000000000000D+00
